{"type": "FeatureCollection", "features": [ {"type": "Feature", "properties": {"norad_id": 38552, "name": "METEOSAT-10 (MSG-3)", "group": "weather", "lat": 0.35255102806621086, "lon": -123.41618390735269, "alt_km": 35783.57701767154, "timestamp": "2025-12-04T10:51:49.749347+00:00", "meta": {"OBJECT_NAME": "METEOSAT-10 (MSG-3)", "OBJECT_ID": "2012-035B", "EPOCH": "2025-12-03T01:46:14.361312", "MEAN_MOTION": 1.00272334, "ECCENTRICITY": 7.5e-05, "INCLINATION": 4.2044, "RA_OF_ASC_NODE": 61.7366, "ARG_OF_PERICENTER": 219.9554, "MEAN_ANOMALY": 177.1386, "EPHEMERIS_TYPE": 0, "CLASSIFICATION_TYPE": "U", "NORAD_CAT_ID": 38552, "ELEMENT_SET_NO": 999, "REV_AT_EPOCH": 4889, "BSTAR": 0, "MEAN_MOTION_DOT": 1.1e-07, "MEAN_MOTION_DDOT": 0}, "tle": {"line1": "1 38552U 12035B   25337.07377733  .00000011  00000+0  00000+0 0  9991", "line2": "2 38552   4.2044  61.7366 0000750 219.9554 177.1386  1.00272334 48899"}}, "geometry": {"type": "Point", "coordinates": [-123.41618390735269, 0.35255102806621086]}}, {"type": "Feature", "properties": {"norad_id": 38771, "name": "METOP-B", "group": "weather", "lat": -6.303151620406442, "lon": -152.41546836331457, "alt_km": 822.6492431563838, "timestamp": "2025-12-04T10:51:49.749358+00:00", "meta": {"OBJECT_NAME": "METOP-B", "OBJECT_ID": "2012-049A", "EPOCH": "2025-12-03T23:51:13.778208", "MEAN_MOTION": 14.21403487, "ECCENTRICITY": 0.00025204, "INCLINATION": 98.6812, "RA_OF_ASC_NODE": 28.1005, "ARG_OF_PERICENTER": 163.9028, "MEAN_ANOMALY": 196.223, "EPHEMERIS_TYPE": 0, "CLASSIFICATION_TYPE": "U", "NORAD_CAT_ID": 38771, "ELEMENT_SET_NO": 999, "REV_AT_EPOCH": 68553, "BSTAR": 0.00016338265, "MEAN_MOTION_DOT": 3.13e-06, "MEAN_MOTION_DDOT": 0}, "tle": {"line1": "1 38771U 12049A   25337.99390947  .00000313  00000+0  16338-3 0  9992", "line2": "2 38771  98.6812  28.1005 0002520 163.9028 196.2230 14.21403487685530"}}, "geometry": {"type": "Point", "coordinates": [-152.41546836331457, -6.303151620406442]}}, {"type": "Feature", "properties": {"norad_id": 39216, "name": "INSAT-3D", "group": "weather", "lat": -1.378111822254349, "lon": 6.009634703184269, "alt_km": 35790.21014795957, "timestamp": "2025-12-04T10:51:49.749371+00:00", "meta": {"OBJECT_NAME": "INSAT-3D", "OBJECT_ID": "2013-038B", "EPOCH": "2025-12-03T19:09:59.504832", "MEAN_MOTION": 1.00273601, "ECCENTRICITY": 0.00017622, "INCLINATION": 1.4199, "RA_OF_ASC_NODE": 85.093, "ARG_OF_PERICENTER": 155.0281, "MEAN_ANOMALY": 249.7797, "EPHEMERIS_TYPE": 0, "CLASSIFICATION_TYPE": "U", "NORAD_CAT_ID": 39216, "ELEMENT_SET_NO": 999, "REV_AT_EPOCH": 4512, "BSTAR": 0, "MEAN_MOTION_DOT": -3.22e-06, "MEAN_MOTION_DDOT": 0}, "tle": {"line1": "1 39216U 13038B   25337.79860538 -.00000322  00000+0  00000+0 0  9998", "line2": "2 39216   1.4199  85.0930 0001762 155.0281 249.7797  1.00273601 45127"}}, "geometry": {"type": "Point", "coordinates": [6.009634703184269, -1.378111822254349]}}, {"type": "Feature", "properties": {"norad_id": 39260, "name": "FENGYUN 3C", "group": "weather", "lat": -62.44774952754689, "lon": 119.93066570991405, "alt_km": 837.878920559926, "timestamp": "2025-12-04T10:51:49.749383+00:00", "meta": {"OBJECT_NAME": "FENGYUN 3C", "OBJECT_ID": "2013-052A", "EPOCH": "2025-12-04T04:37:39.008640", "MEAN_MOTION": 14.15692321, "ECCENTRICITY": 0.0013861, "INCLINATION": 98.4754, "RA_OF_ASC_NODE": 316.2899, "ARG_OF_PERICENTER": 221.708, "MEAN_ANOMALY": 138.3039, "EPHEMERIS_TYPE": 0, "CLASSIFICATION_TYPE": "U", "NORAD_CAT_ID": 39260, "ELEMENT_SET_NO": 999, "REV_AT_EPOCH": 63097, "BSTAR": 0.00014795, "MEAN_MOTION_DOT": 2.49e-06, "MEAN_MOTION_DDOT": 0}, "tle": {"line1": "1 39260U 13052A   25338.19281260  .00000249  00000+0  14795-3 0  9994", "line2": "2 39260  98.4754 316.2899 0013861 221.7080 138.3039 14.15692321630972"}}, "geometry": {"type": "Point", "coordinates": [119.93066570991405, -62.44774952754689]}}, {"type": "Feature", "properties": {"norad_id": 40069, "name": "METEOR-M 2", "group": "weather", "lat": 54.4224548707636, "lon": -55.696160371768876, "alt_km": 818.8937696761177, "timestamp": "2025-12-04T10:51:49.749394+00:00", "meta": {"OBJECT_NAME": "METEOR-M 2", "OBJECT_ID": "2014-037A", "EPOCH": "2025-12-04T00:28:03.055584", "MEAN_MOTION": 14.21381341, "ECCENTRICITY": 0.00047131, "INCLINATION": 98.4893, "RA_OF_ASC_NODE": 315.9388, "ARG_OF_PERICENTER": 238.7315, "MEAN_ANOMALY": 121.3402, "EPHEMERIS_TYPE": 0, "CLASSIFICATION_TYPE": "U", "NORAD_CAT_ID": 40069, "ELEMENT_SET_NO": 999, "REV_AT_EPOCH": 59159, "BSTAR": 0.00015539723, "MEAN_MOTION_DOT": 2.97e-06, "MEAN_MOTION_DDOT": 0}, "tle": {"line1": "1 40069U 14037A   25338.01947981  .00000297  00000+0  15540-3 0  9999", "line2": "2 40069  98.4893 315.9388 0004713 238.7315 121.3402 14.21381341591593"}}, "geometry": {"type": "Point", "coordinates": [-55.696160371768876, 54.4224548707636]}}, {"type": "Feature", "properties": {"norad_id": 40267, "name": "HIMAWARI-8", "group": "weather", "lat": -0.009606557103485694, "lon": 17.153767702467164, "alt_km": 35786.79541310874, "timestamp": "2025-12-04T10:51:49.749406+00:00", "meta": {"OBJECT_NAME": "HIMAWARI-8", "OBJECT_ID": "2014-060A", "EPOCH": "2025-12-03T18:51:33.971040", "MEAN_MOTION": 1.00270422, "ECCENTRICITY": 0.00012657, "INCLINATION": 0.0059, "RA_OF_ASC_NODE": 94.3673, "ARG_OF_PERICENTER": 190.2827, "MEAN_ANOMALY": 211.7912, "EPHEMERIS_TYPE": 0, "CLASSIFICATION_TYPE": "U", "NORAD_CAT_ID": 40267, "ELEMENT_SET_NO": 999, "REV_AT_EPOCH": 4080, "BSTAR": 0, "MEAN_MOTION_DOT": -2.58e-06, "MEAN_MOTION_DDOT": 0}, "tle": {"line1": "1 40267U 14060A   25337.78580985 -.00000258  00000+0  00000+0 0  9994", "line2": "2 40267   0.0059  94.3673 0001265 190.2827 211.7912  1.00270422 40803"}}, "geometry": {"type": "Point", "coordinates": [17.153767702467164, -0.009606557103485694]}}, {"type": "Feature", "properties": {"norad_id": 40367, "name": "FENGYUN 2G", "group": "weather", "lat": -5.081299439112704, "lon": -23.82938907918692, "alt_km": 35782.996642701386, "timestamp": "2025-12-04T10:51:49.749419+00:00", "meta": {"OBJECT_NAME": "FENGYUN 2G", "OBJECT_ID": "2014-090A", "EPOCH": "2025-12-03T20:01:44.338944", "MEAN_MOTION": 1.00267283, "ECCENTRICITY": 0.0003113, "INCLINATION": 5.144, "RA_OF_ASC_NODE": 75.2006, "ARG_OF_PERICENTER": 193.8715, "MEAN_ANOMALY": 203.9913, "EPHEMERIS_TYPE": 0, "CLASSIFICATION_TYPE": "U", "NORAD_CAT_ID": 40367, "ELEMENT_SET_NO": 999, "REV_AT_EPOCH": 4004, "BSTAR": 0, "MEAN_MOTION_DOT": -2.88e-06, "MEAN_MOTION_DDOT": 0}, "tle": {"line1": "1 40367U 14090A   25337.83454096 -.00000288  00000+0  00000+0 0  9990", "line2": "2 40367   5.1440  75.2006 0003113 193.8715 203.9913  1.00267283 40042"}}, "geometry": {"type": "Point", "coordinates": [-23.82938907918692, -5.081299439112704]}}, {"type": "Feature", "properties": {"norad_id": 40732, "name": "METEOSAT-11 (MSG-4)", "group": "weather", "lat": 0.25946222870961044, "lon": -114.02834210559028, "alt_km": 35783.276920110286, "timestamp": "2025-12-04T10:51:49.749431+00:00", "meta": {"OBJECT_NAME": "METEOSAT-11 (MSG-4)", "OBJECT_ID": "2015-034A", "EPOCH": "2025-12-03T13:48:01.944864", "MEAN_MOTION": 1.0027785, "ECCENTRICITY": 2.411e-05, "INCLINATION": 2.7126, "RA_OF_ASC_NODE": 72.0252, "ARG_OF_PERICENTER": 162.3254, "MEAN_ANOMALY": 54.7965, "EPHEMERIS_TYPE": 0, "CLASSIFICATION_TYPE": "U", "NORAD_CAT_ID": 40732, "ELEMENT_SET_NO": 999, "REV_AT_EPOCH": 525, "BSTAR": 0, "MEAN_MOTION_DOT": 8.1e-07, "MEAN_MOTION_DDOT": 0}, "tle": {"line1": "1 40732U 15034A   25337.57502251  .00000081  00000+0  00000+0 0  9993", "line2": "2 40732   2.7126  72.0252 0000241 162.3254  54.7965  1.00277850  5252"}}, "geometry": {"type": "Point", "coordinates": [-114.02834210559028, 0.25946222870961044]}}, {"type": "Feature", "properties": {"norad_id": 41105, "name": "ELEKTRO-L 2", "group": "weather", "lat": 3.1674010946095343, "lon": -137.94163089118786, "alt_km": 35774.978422440705, "timestamp": "2025-12-04T10:51:49.749443+00:00", "meta": {"OBJECT_NAME": "ELEKTRO-L 2", "OBJECT_ID": "2015-074A", "EPOCH": "2025-12-04T01:40:17.137056", "MEAN_MOTION": 1.00269777, "ECCENTRICITY": 0.000402, "INCLINATION": 6.2023, "RA_OF_ASC_NODE": 72.9293, "ARG_OF_PERICENTER": 197.7104, "MEAN_ANOMALY": 173.0548, "EPHEMERIS_TYPE": 0, "CLASSIFICATION_TYPE": "U", "NORAD_CAT_ID": 41105, "ELEMENT_SET_NO": 999, "REV_AT_EPOCH": 3655, "BSTAR": 0, "MEAN_MOTION_DOT": -1.05e-06, "MEAN_MOTION_DDOT": 0}, "tle": {"line1": "1 41105U 15074A   25338.06964279 -.00000105  00000+0  00000+0 0  9997", "line2": "2 41105   6.2023  72.9293 0004020 197.7104 173.0548  1.00269777 36559"}}, "geometry": {"type": "Point", "coordinates": [-137.94163089118786, 3.1674010946095343]}}, {"type": "Feature", "properties": {"norad_id": 41752, "name": "INSAT-3DR", "group": "weather", "lat": -0.05180960346392028, "lon": -49.4024216021407, "alt_km": 35740.75646755117, "timestamp": "2025-12-04T10:51:49.749456+00:00", "meta": {"OBJECT_NAME": "INSAT-3DR", "OBJECT_ID": "2016-054A", "EPOCH": "2025-12-04T01:57:38.699424", "MEAN_MOTION": 1.00269584, "ECCENTRICITY": 0.0014501, "INCLINATION": 0.0698, "RA_OF_ASC_NODE": 88.7967, "ARG_OF_PERICENTER": 180.3678, "MEAN_ANOMALY": 267.435, "EPHEMERIS_TYPE": 0, "CLASSIFICATION_TYPE": "U", "NORAD_CAT_ID": 41752, "ELEMENT_SET_NO": 999, "REV_AT_EPOCH": 3386, "BSTAR": 0, "MEAN_MOTION_DOT": -6.1e-07, "MEAN_MOTION_DDOT": 0}, "tle": {"line1": "1 41752U 16054A   25338.08169791 -.00000061  00000+0  00000+0 0  9993", "line2": "2 41752   0.0698  88.7967 0014501 180.3678 267.4350  1.00269584 33865"}}, "geometry": {"type": "Point", "coordinates": [-49.4024216021407, -0.05180960346392028]}}]}